id,name,address,phone_number,website,email,category,from,to,address_gmaps,share_gmaps,point_lat,point_lon
1,A ILHA ,"Rua da ilha do principe 3a, porta E, 1170-182 Lisboa, Portugal",351 21 826 92 70,https://www.a-ilha.pt/en,info@a-ilha.pt,Espaço Independente ,2013,,"R. Ilha do Príncipe 3A porta E, 1170-182 Lisboa",https://maps.app.goo.gl/XE7MWX8vffZByDgt5,38.7276091,-9.1316058
2,A.Space,"Arco Escuro, nº 6, Lisboa (Campo das Cebolas)",351 914 865 243,https://aspace.pt/pt/,info@aspace.pt,Espaço Independente ,2013,,"Arco Escuro 6, 1100-389 Lisboa",https://maps.app.goo.gl/Cwd9Pk6cWzV9rgX3A,38.7092552,-9.1341093
3,AiR351 Art in Residence,"Avenida Vasco da Gama nº 11, 2750-509 Cascais, Portugal",Não disponível ,https://air351.art/,info@air351.art,Espaço Independente ,2015,,"Av. Vasco da Gama 11, 2750-509 Cascais",https://maps.app.goo.gl/zPSr7ewZBh8wBEQK9,38.6965704,-9.4229744
4,Appleton Associação Cultural ,"R. Acácio de Paiva 27, 1700-004 Lisboa, Portugal ",351 210 993 660,https://appleton.pt/programa/?lang=pt-pt,appleton@appleton.pt,Espaço Independente ,2007,,"R. Acácio de Paiva 27, 1700-004 Lisboa",https://maps.app.goo.gl/VBq3PGb45XaiQExYA,38.7558787,-9.1434369
5,Atelier Concorde,"Rua Leite Vasconcelos 43A, 1170-198 Lisboa, Portugal",Não disponível ,https://www.atelierconcorde.org/,okconcorde@gmail.com,Espaço Independente ,2010,,"R. Leite de Vasconcelos 43A, 1170-198 Lisboa",https://maps.app.goo.gl/a8qCzTvMNyJ2myxT9,38.7177168,-9.1249811
6,Cortex ,"Rua Melo Mexia 9a, 7040-067, Arraiolos, Portugal",351 936 650 003,https://www.cortexfrontal.org/,info@cortexfrontal.org,Espaço Independente,2015,,"Rua Mello Mexia 9A, 7040-067 Arraiolos",https://maps.app.goo.gl/qfc1JDaLMEtR6Atg8,38.7237970,-7.9863574
7,Duplex Air ,"Rua Angelina Vidal 31C - 1170-017 Lisboa, Portugal ",Não disponível ,https://www.duplexair.com/,hello@duplexair.com,Espaço Independente ,2019,,"R. Angelina Vidal 31c, 1170-017 Lisboa",https://maps.app.goo.gl/8ERntxvCyrgAWT2aA,38.7219766,-9.1307668
8,Egeu,"R. do Funchal 1A, 1000-163 Lisboa, Portugal",Não disponível ,https://egeu-project.com/,egeuproject@gmail.com,Espaço Independente ,2019,2023,"R. do Funchal 1 A 1000, 1000-154 Lisboa",https://maps.app.goo.gl/FSRwE5GFb8bgrh3W9,38.7337315,-9.1402153
9,Emerge ,"Avenida Tenente Valadim, 17, 2º piso, 2560-274, Torres Vedras, Portugal ",351 919 182 780,https://www.emerge-ac.pt/en/,,Espaço Independente,2016,,"Av. Ten. Valadim 17 2.ªpiso, 2560-275 Torres Vedras",https://maps.app.goo.gl/BwyVJgVVpZ51e2gZ8,39.0923919,-9.2574085
10,Foundation Obras ,"Heradade de marmeleira, N18, 7100-301, Évora Monte",Não disponível ,http://www.obras-art.org/,obrasart@hotmail.com ,Espaço Independente,2003,,"Heradade de marmeleira, N18, 7100-301 Évora Monte",https://maps.app.goo.gl/7SoWWzhy6XAvqD378,38.7961898,-7.6944828
11,Galeria Zé dos Bois ,"Rua da Barroca nº 59, 1200-047 Lisboa, Portugal",351 213 430 205,http://www.zedosbois.org,e. reservas[@]zedosbois[.]org,Espaço Independente  ,1994,,"R. da Barroca 59, 1200-049 Lisboa",https://maps.app.goo.gl/2APVzsTn1aca5ZJRA,38.7126883,-9.1446383
12,Hangar ,"Rua Damasceno Monteiro, 12 r/c, 1170-112 Lisboa, Portugal ",351 934 155 100,https://hangar.com.pt,geral@hangar.com.pt,Espaço Independente ,2014,,"R. Damasceno Monteiro 12, 1170-108 Lisboa",https://maps.app.goo.gl/jQroqvfgCsQfqZjg8,38.7185978,-9.1322542
13,Kindred Spirit Projects,"Rua da Boavista 54, 1200-085 Lisboa, Portugal ",351 217 162 220,https://kindredspiritprojects.com,info@kindredprojects.com,Espaço Independente ,2023,,"Rua da Boavista 54, 1200-262 Lisboa",https://maps.app.goo.gl/pXw5b4Akt1UGcXEGA,38.7088189,-9.1485260
14,Kusnthalle Lissabon ,"R. José Sobral Cid 9E, 1900-289 Lisboa, Portugal",351 912 045 650,http://www.kunsthalle-lissabon.org,info@kunsthalle-lissabon.org,Espaço Independente ,2009,,"R. José Sobral Cid 9E, 1900-312 Lisboa",https://maps.app.goo.gl/qRDGWT1oTHxvpfpU9,38.7236265,-9.1156212
15,Largo Residências,"Rua Gomes Freire, 161, 1150-176, Lisboa, Portugal ",351 21 888 54 20,https://www.largoresidencias.com, info@largoresidencias.com,Espaço Independente ,2011,,"R. Gomes Freire 161, 1150-176 Lisboa",https://maps.app.goo.gl/4sgDtqSPJYCpkMbP8,38.7258681,-9.1408387
16,Maumaus - Lumiar Cité,"Avenida António Augusto de Aguiar, 148 - 3º C, 1050-021 Lisboa, Portugal",351 217 551 570,http://www.maumaus.org,maumaus@maumaus.org,Espaço Independente ,2009,,"Av. António Augusto de Aguiar 148 3º C, 1050-021 Lisboa",https://maps.app.goo.gl/faSXut5pTdPnjZBc6,38.7353848,-9.1544428
17,Mono Lisboa ,"Rua feio terenas, 31a, 1170-176 lisboa, Portugal ",Não disponível ,https://monolisboa.com/,info@monolisboa.com,Espaço Independente,2019,,"R. Feio Terenas 31A, 1170-176 Lisboa",https://maps.app.goo.gl/XWm5qnriiLWj4ZhSA,38.7234293,-9.1308599
18,Nowhere,"Estr. de Chelas 41, Lisboa, Portugal",351 910 654 87,https://www.nowhere-lisboa.com,nowherelisboa@gmail.com,Espaço Independente,2018,,"Estr. de Chelas 41, Lisboa",https://maps.app.goo.gl/EZn6EGaY1YViFAcd6,38.7264448,-9.1158967
19,Pada Studios and Residency,"Rua 42, Parque Empresarial da Quimiparque n 2, Barreiro, Portugal ",Não disponível ,https://www.padastudios.com/about-pada,info@padastudios.com,Espaço Independente,2018,,"Rua 42, Parque Empresarial da Quimiparque n2, 2831-904 Barreiro",https://maps.app.goo.gl/9dpArsUoCwwEjNNy8,38.6660050,-9.0664270
20,Parasita ,"Avenida Infante D. Henrique, N334, 1800-244, Lisboa, Portugal ",351 916 436 740,https://parasita.eu/parasita/,associacaoparasita@gmail.com,Espaço Independente,2014,,"Av. Infante Dom Henrique 334, 1800-224 Lisboa",https://maps.app.goo.gl/VAgSMzSCVgGbSYUR6,38.7613491,-9.1031882
21,Passetive," R. Maria da Fonte 54A, 1170-217 Lisboa, Portugal ",351 918 753 471,https://www.passevite.net/artistas/,diz@passevite.net,Espaço Independente ,2015,,"R. Maria da Fonte 54A, 1170-217 Lisboa",https://maps.app.goo.gl/NtmRfDF1AX7pHGvd9,38.7231552,-9.1321345
22,Revólver ,"Rua da Boavista 84, 1200-068 Lisboa",351 926 576 443,https://artecapital.net/plataforma.php?t=home,plataformarevolver@gmail.com,Espaço Independente,2006,2022,"Rua da Boavista 84, 1200-068 Lisboa",https://maps.app.goo.gl/6wtQNDwC52n8gaaN7,38.7088885,-9.1489593
23,Salto Lisboa,"Calçada Dom Gastão 5A, 1300-193 Lisboa, Portugal ",351  917 974 399,https://www.instagram.com/salto_lisboa/,Saltolisboa@gmail.com,Espaço Independente ,2020,,"Calçada Dom Gastão 5A, 1300-193 Lisboa",https://maps.app.goo.gl/NaB6zdN3WeaYzgeC6,38.7293964,-9.1083166
24,Zarathan ,"R. de São Bento 432, 1250-221 Lisboa, Portugal ",Não disponível ,https://zaratan.pt/pt/,info@zaratan.pt,Espaço Independente,2014,,"R. de São Bento 432, 1250-221 Lisboa",https://maps.app.goo.gl/9zVKeMyynYDXrKzQ6,38.7157102,-9.1544410
25,1399 ART. LIVE. ROOM,"Rua do Vale de Santo António 48С, 1170-381 Lisboa",Não disponível ,https://www.instagram.com/1399live.art.room/?hl=en,,Espaço Independente,2023,,"Rua do Vale de Santo António 48С, 1170-381 Lisboa",https://maps.app.goo.gl/zK8wvqvwD8AfqaLS6,38.7182866,-9.1227536
26,ADAO – Associação para o Desenvolvimento das Artes e Ofícios,"Rua da Recosta 1, 2830-303 Barreiro",Não disponível ,https://www.adao2830.org/,geral@adao2830.org,Espaço Independente,2015,,"Rua da Recosta 0, 2830-303 Barreiro",https://maps.app.goo.gl/cjVj26Gs12jwmS3z8,38.6556738,-9.0774873
27,Galeria Artur Bual,"R. Luís de Camões, 2700-422 Amadora",351 21 436 9059,https://www.cm-amadora.pt/pt/cultura/galeria-municipal-artur-bual.html,,Espaço Independente,2006,,"R. Luís de Camões, 2700-422 Amadora",https://maps.app.goo.gl/fvBbNPyAnx5oDpKu9,38.7567773,-9.2356033
28,"FIAR, Associação Cultural - Centro de Artes de Rua","Rua Jaime Afreixo, 71, 2950 Palmela",351 210831500,https://www.facebook.com/artenaviladepalmela,fiarproducao@gmail.com,Espaço Independente,1995,,"O Moinho, rua Heliodoro Salgado, Parque Venâncio Ribeiro da Costa, 2950-241 Palmela",https://maps.app.goo.gl/yWEwpT595yBrc7kx9,38.5670745,-8.9029055
29,Rua das Gaivotas 6,"R. Gaivotas 6, 1200-202 Lisboa",351 912 191 940,https://ruadasgaivotas6.pt/,,Espaço Independente,2015,,"R. das Gaivotas 8, 1200-202 Lisboa",https://maps.app.goo.gl/YcYoKqNoMZMoqKpz9,38.7092756,-9.1508754